{
    "links": {
        "self": "http://www.neowsapp.com/rest/v1/neo/54087862?api_key=iIulBulltgU6a56xZRHN4H3l9WmuAYTsLGpBGhQ2"
    },
    "id": "54087862",
    "neo_reference_id": "54087862",
    "name": "(2020 US7)",
    "designation": "2020 US7",
    "nasa_jpl_url": "http://ssd.jpl.nasa.gov/sbdb.cgi?sstr=54087862",
    "absolute_magnitude_h": 25.812,
    "estimated_diameter": {
        "kilometers": {
            "estimated_diameter_min": 0.0182875268,
            "estimated_diameter_max": 0.0408921532
        },
        "meters": {
            "estimated_diameter_min": 18.2875268431,
            "estimated_diameter_max": 40.8921531615
        },
        "miles": {
            "estimated_diameter_min": 0.0113633388,
            "estimated_diameter_max": 0.0254091981
        },
        "feet": {
            "estimated_diameter_min": 59.9984495679,
            "estimated_diameter_max": 134.1606117783
        }
    },
    "is_potentially_hazardous_asteroid": false,
    "close_approach_data": [
        {
            "close_approach_date": "2019-04-01",
            "close_approach_date_full": "2019-Apr-01 12:50",
            "epoch_date_close_approach": 1554123000000,
            "relative_velocity": {
                "kilometers_per_second": "14.519224394",
                "kilometers_per_hour": "52269.2078184745",
                "miles_per_hour": "32478.0530469849"
            },
            "miss_distance": {
                "astronomical": "0.271299461",
                "lunar": "105.535490329",
                "kilometers": "40585821.49774807",
                "miles": "25218860.064620566"
            },
            "orbiting_body": "Earth"
        },
        {
            "close_approach_date": "2020-10-01",
            "close_approach_date_full": "2020-Oct-01 04:20",
            "epoch_date_close_approach": 1601526000000,
            "relative_velocity": {
                "kilometers_per_second": "5.5550246644",
                "kilometers_per_hour": "19998.0887917107",
                "miles_per_hour": "12426.034671716"
            },
            "miss_distance": {
                "astronomical": "0.0771307827",
                "lunar": "30.0038744703",
                "kilometers": "11538600.803352849",
                "miles": "7169754.0732893562"
            },
            "orbiting_body": "Earth"
        }
    ],
    "orbital_data": {
        "orbit_id": "1",
        "orbit_determination_date": "2020-11-16 06:42:02",
        "first_observation_date": "2020-10-23",
        "last_observation_date": "2020-10-24",
        "data_arc_in_days": 1,
        "observations_used": 11,
        "orbit_uncertainty": "9",
        "minimum_orbit_intersection": ".00393626",
        "jupiter_tisserand_invariant": "5.714",
        "epoch_osculation": "2459146.5",
        "eccentricity": ".1890869173024759",
        "semi_major_axis": "1.077958853304166",
        "inclination": "7.283287046870096",
        "ascending_node_longitude": "26.32102425810239",
        "orbital_period": "408.7913546147259",
        "perihelion_distance": ".8741309367539694",
        "perihelion_argument": "256.7587388729112",
        "aphelion_distance": "1.281786769854363",
        "perihelion_time": "2459047.608172776048",
        "mean_anomaly": "87.08857806979722",
        "mean_motion": ".8806448471477329",
        "equinox": "J2000",
        "orbit_class": {
            "orbit_class_type": "APO",
            "orbit_class_description": "Near-Earth asteroid orbits which cross the Earth’s orbit similar to that of 1862 Apollo",
            "orbit_class_range": "a (semi-major axis) > 1.0 AU; q (perihelion) < 1.017 AU"
        }
    },
    "is_sentry_object": false
}